NORAD_CAT_ID,OBJECT_NAME,OBJECT_TYPE,EPOCH,MEAN_MOTION,ECCENTRICITY,INCLINATION,RA_OF_ASC_NODE,ARG_OF_PERICENTER,MEAN_ANOMALY,BSTAR,MEAN_MOTION_DOT,MEAN_MOTION_DDOT,TLE_LINE0,TLE_LINE1,TLE_LINE2,SEMIMAJOR_AXIS,PERIOD,APOGEE,PERIGEE,DECAYED
55961.0,STARLINK-5933,PAYLOAD,2023-03-22 18:00:00,15.95272819,0.0039447,69.9998,167.7431,162.5051,302.4282,-0.0022808,-0.00973555,0.00029742,0 STARLINK-5933,1 55961U 23037AZ  23081.75001157 -.00973555  29742-3 -22808-2 0  9996,2 55961  69.9998 167.7431 0039447 162.5051 302.4282 15.95272819  1308,6665.691,90.267,313.85,261.262,0.0
55961.0,STARLINK-5933,PAYLOAD,2023-03-22 22:00:00,15.94981527,0.0036685,69.9998,167.2565,162.4986,179.1959,-0.002514,-0.0104403,0.00033737,0 STARLINK-5933,1 55961U 23037AZ  23081.91667824 -.01044030  33737-3 -25140-2 0  9992,2 55961  69.9998 167.2565 0036685 162.4986 179.1959 15.94981527  1300,6666.503,90.283,312.824,263.912,0.0
55961.0,STARLINK-5933,PAYLOAD,2023-03-23 06:00:00,15.94296493,0.0034158,70.0002,166.2845,163.5046,291.1621,-0.0024653,-0.00977732,0.00029675,0 STARLINK-5933,1 55961U 23037AZ  23082.25001157 -.00977732  29675-3 -24653-2 0  9998,2 55961  70.0002 166.2845 0034158 163.5046 291.1621 15.94296493  1370,6668.412,90.322,313.055,267.499,0.0
55961.0,STARLINK-5933,PAYLOAD,2023-03-23 14:00:01,15.93648787,0.0029901,69.9999,165.3138,164.3886,42.5213,-0.0026169,-0.0098858,0.00030085,0 STARLINK-5933,1 55961U 23037AZ  23082.58335648 -.00988580  30085-3 -26169-2 0  9993,2 55961  69.9999 165.3138 0029901 164.3886  42.5213 15.93648787  1302,6670.219,90.359,312.029,272.139,0.0
55961.0,STARLINK-5933,PAYLOAD,2023-03-24 17:00:11,15.91438843,0.0018065,69.9999,162.0429,174.0982,1.2373,-0.0029702,-0.00972156,0.00028522,0 STARLINK-5933,1 55961U 23037AZ  23083.70846065 -.00972156  28522-3 -29702-2 0  9999,2 55961  69.9999 162.0429 0018065 174.0982   1.2373 15.91438843  1603,6676.393,90.484,310.319,286.197,0.0
55961.0,STARLINK-5933,PAYLOAD,2023-03-24 22:00:01,15.91074632,0.0015524,69.9997,161.4384,178.1215,109.6651,-0.0033041,-0.01056491,0.00033145,0 STARLINK-5933,1 55961U 23037AZ  23083.91668981 -.01056491  33145-3 -33041-2 0  9995,2 55961  69.9997 161.4384 0015524 178.1215 109.6651 15.91074632  1306,6677.411,90.505,309.643,288.91,0.0
55961.0,STARLINK-5933,PAYLOAD,2023-03-25 06:00:00,15.90405181,0.0012464,70.0001,160.4723,187.8607,208.1332,-0.0033268,-0.01024222,0.00031091,0 STARLINK-5933,1 55961U 23037AZ  23084.25001157 -.01024222  31091-3 -33268-2 0  9995,2 55961  70.0001 160.4723 0012464 187.8607 208.1332 15.90405181  1692,6679.285,90.543,309.475,292.825,0.0
55961.0,STARLINK-5933,PAYLOAD,2023-03-25 14:00:01,15.89729348,0.0010392,70.0001,159.5073,197.7863,305.7007,-0.0032914,-0.00977502,0.0002833,0 STARLINK-5933,1 55961U 23037AZ  23084.58334491 -.00977502  28330-3 -32914-2 0  9997,2 55961  70.0001 159.5073 0010392 197.7863 305.7007 15.89729348  1742,6681.178,90.581,309.986,296.1,0.0
55961.0,STARLINK-5933,PAYLOAD,2023-03-25 22:00:00,15.89102868,0.0008612,69.9997,158.5419,216.9351,33.2449,-0.0035817,-0.01028853,0.00030957,0 STARLINK-5933,1 55961U 23037AZ  23084.91667824 -.01028853  30957-3 -35817-2 0  9993,2 55961  69.9997 158.5419 0008612 216.9351  33.2449 15.89102868  1794,6682.934,90.617,310.554,299.044,0.0
55961.0,STARLINK-5933,PAYLOAD,2023-03-26 06:00:00,15.88455721,0.000846,69.9996,157.5783,239.9862,116.1118,-0.0037385,-0.01039625,0.00031363,0 STARLINK-5933,1 55961U 23037AZ  23085.25001157 -.01039625  31363-3 -37385-2 0  9995,2 55961  69.9996 157.5783 0008460 239.9862 116.1118 15.88455721  1858,6684.749,90.654,312.269,300.959,0.0
55961.0,STARLINK-5933,PAYLOAD,2023-03-26 22:00:01,15.87127398,0.0009046,69.9998,155.6543,267.5569,298.1097,-0.0038185,-0.0090478,0.0,0 STARLINK-5933,1 55961U 23037AZ  23085.91668981 -.00904780  00000-0 -38185-2 0  9994,2 55961  69.9998 155.6543 0009046 267.5569 298.1097 15.87127398  1958,6688.478,90.73,316.394,304.293,0.0
55961.0,STARLINK-5933,PAYLOAD,2023-03-27 14:00:01,15.85836411,0.0007562,70.0,153.7335,271.7788,140.1799,-0.0041715,-0.00924183,0.0,0 STARLINK-5933,1 55961U 23037AZ  23086.58334491 -.00924183  00000-0 -41715-2 0  9996,2 55961  70.0000 153.7335 0007562 271.7788 140.1799 15.85836411  1309,6692.108,90.804,319.033,308.912,0.0
55961.0,STARLINK-5933,PAYLOAD,2023-03-27 22:00:00,15.85191789,0.000392,70.0,152.7743,276.2975,237.6658,-0.0043601,-0.00932425,0.0,0 STARLINK-5933,1 55961U 23037AZ  23086.91667824 -.00932425  00000-0 -43601-2 0  9996,2 55961  70.0000 152.7743 0003920 276.2975 237.6658 15.85191789  1301,6693.922,90.841,318.411,313.163,0.0
55961.0,STARLINK-5933,PAYLOAD,2023-03-28 14:00:01,15.83870277,0.0003665,70.0002,150.8594,269.8801,85.7609,-0.0045106,-0.00907657,0.0,0 STARLINK-5933,1 55961U 23037AZ  23087.58334491 -.00907657  00000-0 -45106-2 0  9992,2 55961  70.0002 150.8594 0003665 269.8801  85.7609 15.83870277  1300,6697.645,90.917,321.964,317.055,0.0
55961.0,STARLINK-5933,PAYLOAD,2023-03-28 22:00:00,15.83249169,0.0003767,70.0,149.903,280.2019,175.0863,-0.0048875,-0.00950207,0.0,0 STARLINK-5933,1 55961U 23037AZ  23087.91667824 -.00950207  00000-0 -48875-2 0  9993,2 55961  70.0000 149.9030 0003767 280.2019 175.0863 15.83249169  1308,6699.396,90.952,323.785,318.738,0.0
55961.0,STARLINK-5933,PAYLOAD,2023-03-29 02:00:01,15.82890687,0.0003709,70.0002,149.4251,276.9112,47.9298,-0.004717,-0.00906211,0.0,0 STARLINK-5933,1 55961U 23037AZ  23088.08334491 -.00906211  00000-0 -47170-2 0  9996,2 55961  70.0002 149.4251 0003709 276.9112  47.9298 15.82890687  2308,6700.408,90.973,324.758,319.787,0.0
55961.0,STARLINK-5933,PAYLOAD,2023-03-29 14:00:01,15.81914105,0.0003594,70.0004,147.9934,271.3326,20.946,-0.0049457,-0.00907316,0.0,0 STARLINK-5933,1 55961U 23037AZ  23088.58334491 -.00907316  00000-0 -49457-2 0  9998,2 55961  70.0004 147.9934 0003594 271.3326  20.9460 15.81914105  1301,6703.165,91.029,327.439,322.621,0.0
55961.0,STARLINK-5933,PAYLOAD,2023-03-29 22:00:00,15.81261147,0.0003623,69.9998,147.0396,270.536,119.0583,-0.0050959,-0.00906891,0.0,0 STARLINK-5933,1 55961U 23037AZ  23088.91667824 -.00906891  00000-0 -50959-2 0  9990,2 55961  69.9998 147.0396 0003623 270.5360 119.0583 15.81261147  1302,6705.01,91.067,329.304,324.446,0.0
55961.0,STARLINK-5933,PAYLOAD,2023-03-30 00:00:00,15.810953,0.0003506,69.9999,146.8015,270.1242,233.6774,-0.0051047,-0.00901944,0.0,0 STARLINK-5933,1 55961U 23037AZ  23089.00001157 -.00901944  00000-0 -51047-2 0  9995,2 55961  69.9999 146.8015 0003506 270.1242 233.6774 15.81095300  2440,6705.479,91.076,329.695,324.993,0.0
55961.0,STARLINK-5933,PAYLOAD,2023-03-30 22:00:00,15.79303667,0.0003635,70.0002,144.1846,273.216,43.6297,-0.005572,-0.00906245,0.0,0 STARLINK-5933,1 55961U 23037AZ  23089.91667824 -.00906245  00000-0 -55720-2 0  9995,2 55961  70.0002 144.1846 0003635 273.2160  43.6297 15.79303667  2597,6710.549,91.179,334.854,329.975,0.0
55961.0,STARLINK-5933,PAYLOAD,2023-03-31 22:00:00,15.77351315,0.0003663,70.0004,141.3378,284.3338,312.7204,-0.0061306,-0.00912308,0.0,0 STARLINK-5933,1 55961U 23037AZ  23090.91667824 -.00912308  00000-0 -61306-2 0  9991,2 55961  70.0004 141.3378 0003663 284.3338 312.7204 15.77351315  2745,6716.086,91.292,340.411,335.49,0.0
55961.0,STARLINK-5933,PAYLOAD,2023-04-01 14:00:01,15.76040888,0.0003616,70.0001,139.4449,275.62,144.3311,-0.0064135,-0.00901533,0.0,0 STARLINK-5933,1 55961U 23037AZ  23091.58334491 -.00901533  00000-0 -64135-2 0  9997,2 55961  70.0001 139.4449 0003616 275.6200 144.3311 15.76040888  1306,6719.808,91.368,344.103,339.243,0.0
55961.0,STARLINK-5933,PAYLOAD,2023-04-01 22:00:00,15.75389611,0.0003638,70.0002,138.4994,285.4273,224.7977,-0.0066111,-0.00902898,0.0,0 STARLINK-5933,1 55961U 23037AZ  23091.91667824 -.00902898  00000-0 -66111-2 0  9994,2 55961  70.0002 138.4994 0003638 285.4273 224.7977 15.75389611  2901,6721.66,91.406,345.97,341.079,0.0
55961.0,STARLINK-5933,PAYLOAD,2023-04-02 14:00:01,15.74085005,0.000364,70.0,136.6121,276.073,52.3536,-0.0069914,-0.00902087,0.0,0 STARLINK-5933,1 55961U 23037AZ  23092.58334491 -.00902087  00000-0 -69914-2 0  9993,2 55961  70.0000 136.6121 0003640 276.0730  52.3536 15.74085005  1306,6725.373,91.482,349.686,344.79,0.0
55961.0,STARLINK-5933,PAYLOAD,2023-04-02 22:00:00,15.73427876,0.0003755,70.0002,135.6692,284.1945,132.1618,-0.0071337,-0.00895438,0.0,0 STARLINK-5933,1 55961U 23037AZ  23092.91667824 -.00895438  00000-0 -71337-2 0  9992,2 55961  70.0002 135.6692 0003755 284.1945 132.1618 15.73427876  1308,6727.246,91.52,351.637,346.584,0.0
55961.0,STARLINK-5933,PAYLOAD,2023-04-03 14:00:01,15.72125472,0.0003485,69.9998,133.7872,276.4052,313.4579,-0.007566,-0.00897767,0.0,0 STARLINK-5933,1 55961U 23037AZ  23093.58334491 -.00897767  00000-0 -75660-2 0  9997,2 55961  69.9998 133.7872 0003485 276.4052 313.4579 15.72125472  3163,6730.96,91.596,355.171,350.48,0.0
55961.0,STARLINK-5933,PAYLOAD,2023-04-03 22:00:00,15.71441592,0.0003551,69.9943,132.839,266.0795,49.371,-0.0072621,-0.0084269,0.0,0 STARLINK-5933,1 55961U 23037AZ  23093.91667824 -.00842690  00000-0 -72621-2 0  9992,2 55961  69.9943 132.8390 0003551 266.0795  49.3710 15.71441592  1300,6732.913,91.636,357.169,352.387,0.0
55961.0,STARLINK-5933,PAYLOAD,2023-04-04 08:00:01,15.70619643,0.0003681,69.9951,131.6655,273.5748,237.8232,-0.007402,-0.00830913,0.0,0 STARLINK-5933,1 55961U 23037AZ  23094.33335648 -.00830913  00000-0 -74020-2 0  9995,2 55961  69.9951 131.6655 0003681 273.5748 237.8232 15.70619643  3280,6735.262,91.684,359.606,354.648,0.0
55961.0,STARLINK-5933,PAYLOAD,2023-04-04 14:00:01,15.6997791,0.0003761,69.9955,130.962,276.8689,207.4056,-0.00086334,-0.00103,0.0,0 STARLINK-5933,1 55961U 23037AZ  23094.58334491 -.00103000  00000-0 -86334-3 0  9999,2 55961  69.9955 130.9620 0003761 276.8689 207.4056 15.69977910  3321,6737.097,91.721,361.496,356.428,0.0
